JUPITER 3 (ECHOSTAR 24) 
1 57479U 23108A   26180.49348460  .00000000  00000+0  00000+0 0  9999
2 57479   0.0217  17.2263 0001233  76.3828 266.4051  1.00271199 10766
FENGYUN 3F              
1 57490U 23111A   26181.50354411  .00000062  00000+0  49445-4 0  9991
2 57490  98.6833 251.2640 0001507  83.6914 276.4434 14.19941255150757
GALAXY 37 (G-37)        
1 57493U 23112A   26181.60793172  .00000059  00000+0  00000+0 0  9992
2 57493   0.0157 327.7805 0002146 131.4031 271.3455  1.00271230 10678
STARLINK-30154          
1 57495U 23113A   26181.06579448 -.00000775  00000+0 -18660-4 0  9996
2 57495  43.0006 101.2492 0000844 171.9880 188.0985 15.27588857160703
STARLINK-30145          
1 57496U 23113B   26181.58334491  .00009125  00000+0  34077-3 0  9996
2 57496  43.0016  98.5212 0001426 258.7958 352.9177 15.27572810  5851
STARLINK-30226          
1 57497U 23113C   26181.08379407 -.00000077  00000+0  67266-5 0  9994
2 57497  43.0034 101.4091 0001263 278.7939  81.2770 15.27566393160763
STARLINK-30203          
1 57498U 23113D   26181.06066185 -.00000066  00000+0  71414-5 0  9997
2 57498  43.0015 101.2232 0001571 270.0920  89.9751 15.27574855160884
STARLINK-30169          
1 57499U 23113E   26180.96642036  .00000206  00000+0  17012-4 0  9999
2 57499  43.0033  87.8076 0001439 261.4659  98.6030 15.27575410160858
STARLINK-30164          
1 57500U 23113F   26181.07865228  .00002368  00000+0  95605-4 0  9990
2 57500  43.0008 101.3527 0001390 271.0376  89.0316 15.27561146160868
STARLINK-30072          
1 57501U 23113G   26180.83894477  .00000392  00000+0  23769-4 0  9999
2 57501  43.0014 102.9796 0001234 269.3670  90.7040 15.27579134160718
STARLINK-30230          
1 57503U 23113J   26181.07607669  .00001388  00000+0  59947-4 0  9996
2 57503  42.9958 101.3110 0000855 282.2980  77.7776 15.27575134160755
STARLINK-30213          
1 57504U 23113K   26180.84665447  .00000779  00000+0  37814-4 0  9991
2 57504  43.0036 103.0378 0001302 268.0240  92.0463 15.27580279160826
STARLINK-30227          
1 57505U 23113L   26181.05357814  .00049340  00000+0  18380-2 0  9994
2 57505  42.9942  92.4346 0010916 193.7903 166.2651 15.26668023160969
STARLINK-30212          
1 57506U 23113M   26181.04666905 -.00000879  00000+0 -22407-4 0  9991
2 57506  43.0046 101.9612 0001917 291.4636  68.6011 15.27582910160695
STARLINK-30219          
1 57507U 23113N   26181.04504050  .00017376  00000+0  56709-3 0  9993
2 57507  42.9993 100.2269 0002628 201.8664 158.2077 15.31488915160874
STARLINK-30074          
1 57508U 23113P   26181.09022067  .00004832  00000+0  18518-3 0  9991
2 57508  43.0036 101.4351 0001150 250.2282 109.8446 15.27544877160656
STARLINK-30082          
1 57509U 23113Q   26180.80810440  .00000376  00000+0  23186-4 0  9997
2 57509  43.0026 102.7674 0001099 256.6870 103.3859 15.27579753160820
STARLINK-30153          
1 57510U 23113R   26181.05166860  .00003467  00000+0  13548-3 0  9991
2 57510  43.0001 101.1658 0001212 274.7427  85.3286 15.27570171160756
STARLINK-30147          
1 57511U 23113S   26181.06194650  .00000279  00000+0  19678-4 0  9990
2 57511  43.0014 101.2327 0001528 272.6936  87.3741 15.27574527160866
STARLINK-30157          
1 57512U 23113T   26181.00612493  .00000299  00000+0  20364-4 0  9991
2 57512  42.9974  75.9694 0000757 251.0222 109.0547 15.27571241161155
STARLINK-30168          
1 57513U 23113U   26180.92731400  .00000778  00000+0  37779-4 0  9992
2 57513  43.0003 101.9147 0001224 271.5993  88.4718 15.27581766160686
STARLINK-30231          
1 57514U 23113V   26181.07351466 -.00001749  00000+0 -54047-4 0  9998
2 57514  43.0020 101.3075 0001652 278.1419  81.9246 15.27566733160862
STARLINK-30081          
1 57515U 23113W   26181.05423641  .00001226  00000+0  54052-4 0  9996
2 57515  43.0021 101.1831 0001221 264.2589  95.8123 15.27581103160864
STARLINK-30149          
1 57516U 23113X   26181.06837170  .00000356  00000+0  22471-4 0  9997
2 57516  42.9988 101.2787 0001200 276.2100  83.8615 15.27572856160762
COSMOS 2569 [GLONASS-K2]
1 57517U 23114A   26181.39268046 -.00000020  00000+0  00000+0 0  9993
2 57517  65.3095  72.1752 0010196 296.5286  63.4269  2.13103831 22549
HJ-2F                   
1 57519U 23116A   26181.59512779  .00006875  00000+0  29934-3 0  9998
2 57519  97.3838 186.5811 0008323   9.6231 350.5164 15.22506870160797
STARLINK-30259          
1 57521U 23115A   26181.04202412 -.00001740  00000+0 -53754-4 0  9996
2 57521  42.9998  87.1329 0001241 281.6638  78.4075 15.27569449160757
STARLINK-30256          
1 57522U 23115B   26180.80230213 -.00008914  00000+0 -31442-3 0  9999
2 57522  42.9979  88.7629 0001011 214.1833 145.8954 15.27619102159496
STARLINK-30261          
1 57523U 23115C   26180.92538609 -.00000160  00000+0  37396-5 0  9993
2 57523  43.0083  87.9761 0002401 285.8420  74.2167 15.27565424159515
STARLINK-30260          
1 57524U 23115D   26181.03816862 -.00000321  00000+0 -21446-5 0  9996
2 57524  43.0003  87.1198 0001665 278.1509  81.9154 15.27574487159530
