OBJECT_NAME,OBJECT_ID,EPOCH,MEAN_MOTION,ECCENTRICITY,INCLINATION,RA_OF_ASC_NODE,ARG_OF_PERICENTER,MEAN_ANOMALY,EPHEMERIS_TYPE,CLASSIFICATION_TYPE,NORAD_CAT_ID,ELEMENT_SET_NO,REV_AT_EPOCH,BSTAR,MEAN_MOTION_DOT,MEAN_MOTION_DDOT
JUPITER 3 (ECHOSTAR 24),2023-108A,2026-06-29T11:50:37.069440,1.00271199,.00012331,0.0217,17.2263,76.3828,266.4051,0,U,57479,999,1076,0,0,0
FENGYUN 3F,2023-111A,2026-06-30T12:05:06.211104,14.19941255,.00015078,98.6833,251.2640,83.6914,276.4434,0,U,57490,999,15075,.49444699E-4,.62E-6,0
GALAXY 37 (G-37),2023-112A,2026-06-30T14:35:25.300608,1.00271230,.00021465,0.0157,327.7805,131.4031,271.3455,0,U,57493,999,1067,0,.59E-6,0
STARLINK-30154,2023-113A,2026-06-30T01:34:44.643072,15.27588857,.00008445,43.0006,101.2492,171.9880,188.0985,0,U,57495,999,16070,-.18659964E-4,-.775E-5,0
STARLINK-30145,2023-113B,2026-06-30T14:00:01.000224,15.27572810,.00014266,43.0016,98.5212,258.7958,352.9177,0,U,57496,999,585,.34076981E-3,.9125E-4,0
STARLINK-30226,2023-113C,2026-06-30T02:00:39.807648,15.27566393,.0001263,43.0034,101.4091,278.7939,81.2770,0,U,57497,999,16076,.6726631E-5,-.77E-6,0
STARLINK-30203,2023-113D,2026-06-30T01:27:21.183840,15.27574855,.00015719,43.0015,101.2232,270.0920,89.9751,0,U,57498,999,16088,.7141424E-5,-.66E-6,0
STARLINK-30169,2023-113E,2026-06-29T23:11:38.719104,15.27575410,.0001439,43.0033,87.8076,261.4659,98.6030,0,U,57499,999,16085,.17012093E-4,.206E-5,0
STARLINK-30164,2023-113F,2026-06-30T01:53:15.556992,15.27561146,.00013901,43.0008,101.3527,271.0376,89.0316,0,U,57500,999,16086,.95605385E-4,.2368E-4,0
STARLINK-30072,2023-113G,2026-06-29T20:08:04.828128,15.27579134,.00012349,43.0014,102.9796,269.3670,90.7040,0,U,57501,999,16071,.23769229E-4,.392E-5,0
STARLINK-30230,2023-113J,2026-06-30T01:49:33.026016,15.27575134,.00008553,42.9958,101.3110,282.2980,77.7776,0,U,57503,999,16075,.59946781E-4,.1388E-4,0
STARLINK-30213,2023-113K,2026-06-29T20:19:10.946208,15.27580279,.00013027,43.0036,103.0378,268.0240,92.0463,0,U,57504,999,16082,.37814201E-4,.779E-5,0
STARLINK-30227,2023-113L,2026-06-30T01:17:09.151296,15.26668023,.00109163,42.9942,92.4346,193.7903,166.2651,0,U,57505,999,16096,.18379594E-2,.4934E-3,0
STARLINK-30212,2023-113M,2026-06-30T01:07:12.205920,15.27582910,.00019174,43.0046,101.9612,291.4636,68.6011,0,U,57506,999,16069,-.22406978E-4,-.879E-5,0
STARLINK-30219,2023-113N,2026-06-30T01:04:51.499200,15.31488915,.00026287,42.9993,100.2269,201.8664,158.2077,0,U,57507,999,16087,.56709082E-3,.17376E-3,0
STARLINK-30074,2023-113P,2026-06-30T02:09:55.065888,15.27544877,.00011503,43.0036,101.4351,250.2282,109.8446,0,U,57508,999,16065,.18517845E-3,.4832E-4,0
STARLINK-30082,2023-113Q,2026-06-29T19:23:40.220160,15.27579753,.00010996,43.0026,102.7674,256.6870,103.3859,0,U,57509,999,16082,.23185613E-4,.376E-5,0
STARLINK-30153,2023-113R,2026-06-30T01:14:24.167040,15.27570171,.00012125,43.0001,101.1658,274.7427,85.3286,0,U,57510,999,16075,.13548171E-3,.3467E-4,0
STARLINK-30147,2023-113S,2026-06-30T01:29:12.177600,15.27574527,.00015282,43.0014,101.2327,272.6936,87.3741,0,U,57511,999,16086,.19677785E-4,.279E-5,0
STARLINK-30157,2023-113T,2026-06-30T00:08:49.193952,15.27571241,.00007571,42.9974,75.9694,251.0222,109.0547,0,U,57512,999,16115,.20364345E-4,.299E-5,0
STARLINK-30168,2023-113U,2026-06-29T22:15:19.929600,15.27581766,.00012244,43.0003,101.9147,271.5993,88.4718,0,U,57513,999,16068,.37779395E-4,.778E-5,0
STARLINK-30231,2023-113V,2026-06-30T01:45:51.666624,15.27566733,.00016525,43.0020,101.3075,278.1419,81.9246,0,U,57514,999,16086,-.54046749E-4,-.1749E-4,0
STARLINK-30081,2023-113W,2026-06-30T01:18:06.025824,15.27581103,.00012218,43.0021,101.1831,264.2589,95.8123,0,U,57515,999,16086,.54052253E-4,.1226E-4,0
STARLINK-30149,2023-113X,2026-06-30T01:38:27.314880,15.27572856,.00012005,42.9988,101.2787,276.2100,83.8615,0,U,57516,999,16076,.22471234E-4,.356E-5,0
COSMOS 2569 [GLONASS-K2],2023-114A,2026-06-30T09:25:27.591744,2.13103831,.00101962,65.3095,72.1752,296.5286,63.4269,0,U,57517,999,2254,0,-.2E-6,0
HJ-2F,2023-116A,2026-06-30T14:16:59.041056,15.22506870,.00083237,97.3838,186.5811,9.6231,350.5164,0,U,57519,999,16079,.29933512E-3,.6875E-4,0
STARLINK-30259,2023-115A,2026-06-30T01:00:30.883968,15.27569449,.00012418,42.9998,87.1329,281.6638,78.4075,0,U,57521,999,16075,-.53754209E-4,-.174E-4,0
STARLINK-30256,2023-115B,2026-06-29T19:15:18.904032,15.27619102,.00010114,42.9979,88.7629,214.1833,145.8954,0,U,57522,999,15949,-.31442207E-3,-.8914E-4,0
STARLINK-30261,2023-115C,2026-06-29T22:12:33.358176,15.27565424,.00024013,43.0083,87.9761,285.8420,74.2167,0,U,57523,999,15951,.3739645E-5,-.16E-5,0
STARLINK-30260,2023-115D,2026-06-30T00:54:57.768768,15.27574487,.00016655,43.0003,87.1198,278.1509,81.9154,0,U,57524,999,15953,-.2144591E-5,-.321E-5,0
